ONEWEB-0446             
1 51640U 22012U   24239.51824854 -.00000479  00000+0 -14073-2 0  9998
2 51640  87.8992 167.5259 0002236  81.6438 278.4943 13.10370682122934
ONEWEB-0448             
1 51641U 22012V   24239.52322701 -.00000611  00000+0 -17870-2 0  9990
2 51641  87.8992 167.5252 0001841  75.6370 284.4962 13.10371623122908
ONEWEB-0449             
1 51642U 22012W   24239.52820402 -.00000583  00000+0 -17055-2 0  9995
2 51642  87.8988 167.5154 0002139  70.2705 289.8653 13.10372591122911
ONEWEB-0451             
1 51643U 22012X   24239.47566241  .00000490  00000+0  12283-2 0  9991
2 51643  87.9164 137.2447 0001820  70.8050 289.3278 13.17646935126783
ONEWEB-0452             
1 51644U 22012Y   24239.47403334  .00000094  00000+0  20991-3 0  9991
2 51644  87.9174 137.2890 0001921  64.7896 295.3435 13.17647031126790
ONEWEB-0456             
1 51646U 22012AA  24239.53816873 -.00000203  00000+0 -61782-3 0  9993
2 51646  87.8987 167.4831 0001802  82.4425 277.6907 13.10377711122955
ONEWEB-0457             
1 51647U 22012AB  24239.51493061 -.00000339  00000+0 -10071-2 0  9996
2 51647  87.8989 167.5160 0002233  75.0070 285.1304 13.10370722122957
ONEWEB-0458             
1 51648U 22012AC  24239.53650785 -.00000505  00000+0 -14828-2 0  9996
2 51648  87.8996 167.5282 0001883  70.6085 289.5246 13.10375430124213
